STARLINK-36320          
1 68090U 26042X   26080.91667824  .00213437  00000+0  13741-2 0  9993
2 68090  53.1588 133.3852 0000780 154.6354   9.2472 15.75029130  4004
STARLINK-36324          
1 68091U 26042Y   26080.91667824  .00201425  00000+0  12989-2 0  9991
2 68091  53.1585 133.4423 0001986 142.0784 354.1974 15.75027978  4001
STARLINK-36896          
1 68092U 26042Z   26080.91667824  .00068381  00000+0  44728-3 0  9991
2 68092  53.1597 133.3325 0000862  71.2481 118.2425 15.75206741  4012
STARLINK-36251          
1 68093U 26042AA  26080.94204879  .00483565  00000+0  23015-2 0  9992
2 68093  53.1577 133.1528 0000795  62.7404 297.3700 15.81035394  4015
STARLINK-36787          
1 68094U 26042AB  26080.91667824  .00004439  00000+0  33132-4 0  9995
2 68094  53.1590 133.3888 0000761  80.2877  81.5972 15.75223936  4001
STARLINK-36790          
1 68095U 26042AC  26080.94280104  .00425832  00000+0  20434-2 0  9994
2 68095  53.1577 133.1584 0000915  93.2279 266.8849 15.81009902  4013
STARLINK-36328          
1 68096U 26042AD  26080.93979904  .00415038  00000+0  19941-2 0  9995
2 68096  53.1577 133.1372 0000769  52.5683 307.5410 15.81011105  4018
STARLINK-36853          
1 68097U 26042AE  26080.94130004  .00430460  00000+0  20640-2 0  9991
2 68097  53.1578 133.1480 0000974  82.2547 277.8586 15.81015221  4013
GLOBAL-34               
1 68098U 26043A   26080.93012356  .00016076  00000+0  52125-3 0  9998
2 68098  42.0224   4.8395 0005085   4.9778 355.1109 15.31676546  2447
STARLINK-37022          
1 68101U 26044A   26080.91667824 -.00028280  00000+0 -18929-3 0  9994
2 68101  97.2834  41.6544 0001761  89.8109 298.3841 15.75197815  3361
STARLINK-37046          
1 68102U 26044B   26080.91667824 -.00014815  00000+0 -98607-4 0  9996
2 68102  97.2836  41.6574 0001520 105.4013 288.7913 15.75193794  3364
STARLINK-37018          
1 68103U 26044C   26080.91667824 -.00026174  00000+0 -17511-3 0  9992
2 68103  97.2836  41.6607 0001536 104.4430 297.7520 15.75194505  3311
