CCSDS_OMM_VERS = 2.0
CREATION_DATE  = 
ORIGINATOR     = 

OBJECT_NAME    = STARLINK-36320
OBJECT_ID      = 2026-042X
CENTER_NAME    = EARTH
REF_FRAME      = TEME
TIME_SYSTEM    = UTC
MEAN_ELEMENT_THEORY = SGP/SGP4

EPOCH          = 2026-03-21T22:00:00.999936
MEAN_MOTION    = 15.75029130
ECCENTRICITY   = .00007805
INCLINATION    = 53.1588
RA_OF_ASC_NODE = 133.3852
ARG_OF_PERICENTER = 154.6354
MEAN_ANOMALY   = 9.2472

EPHEMERIS_TYPE = 0
CLASSIFICATION_TYPE = U
NORAD_CAT_ID   = 68090
ELEMENT_SET_NO = 999
REV_AT_EPOCH   = 400
BSTAR          = .13741343E-2
MEAN_MOTION_DOT = .213437E-2
MEAN_MOTION_DDOT = 0

CCSDS_OMM_VERS = 2.0
CREATION_DATE  = 
ORIGINATOR     = 

OBJECT_NAME    = STARLINK-36324
OBJECT_ID      = 2026-042Y
CENTER_NAME    = EARTH
REF_FRAME      = TEME
TIME_SYSTEM    = UTC
MEAN_ELEMENT_THEORY = SGP/SGP4

EPOCH          = 2026-03-21T22:00:00.999936
MEAN_MOTION    = 15.75027978
ECCENTRICITY   = .00019865
INCLINATION    = 53.1585
RA_OF_ASC_NODE = 133.4423
ARG_OF_PERICENTER = 142.0784
MEAN_ANOMALY   = 354.1974

EPHEMERIS_TYPE = 0
CLASSIFICATION_TYPE = U
NORAD_CAT_ID   = 68091
ELEMENT_SET_NO = 999
REV_AT_EPOCH   = 400
BSTAR          = .12989414E-2
MEAN_MOTION_DOT = .201425E-2
MEAN_MOTION_DDOT = 0

CCSDS_OMM_VERS = 2.0
CREATION_DATE  = 
ORIGINATOR     = 

OBJECT_NAME    = STARLINK-36896
OBJECT_ID      = 2026-042Z
CENTER_NAME    = EARTH
REF_FRAME      = TEME
TIME_SYSTEM    = UTC
MEAN_ELEMENT_THEORY = SGP/SGP4

EPOCH          = 2026-03-21T22:00:00.999936
MEAN_MOTION    = 15.75206741
ECCENTRICITY   = .00008628
INCLINATION    = 53.1597
RA_OF_ASC_NODE = 133.3325
ARG_OF_PERICENTER = 71.2481
MEAN_ANOMALY   = 118.2425

EPHEMERIS_TYPE = 0
CLASSIFICATION_TYPE = U
NORAD_CAT_ID   = 68092
ELEMENT_SET_NO = 999
REV_AT_EPOCH   = 401
BSTAR          = .44727897E-3
MEAN_MOTION_DOT = .68381E-3
MEAN_MOTION_DDOT = 0

CCSDS_OMM_VERS = 2.0
CREATION_DATE  = 
ORIGINATOR     = 

OBJECT_NAME    = STARLINK-36251
OBJECT_ID      = 2026-042AA
CENTER_NAME    = EARTH
REF_FRAME      = TEME
TIME_SYSTEM    = UTC
MEAN_ELEMENT_THEORY = SGP/SGP4

EPOCH          = 2026-03-21T22:36:33.015456
MEAN_MOTION    = 15.81035394
ECCENTRICITY   = .00007954
INCLINATION    = 53.1577
RA_OF_ASC_NODE = 133.1528
ARG_OF_PERICENTER = 62.7404
MEAN_ANOMALY   = 297.3700

EPHEMERIS_TYPE = 0
CLASSIFICATION_TYPE = U
NORAD_CAT_ID   = 68093
ELEMENT_SET_NO = 999
REV_AT_EPOCH   = 401
BSTAR          = .23015441E-2
MEAN_MOTION_DOT = .483565E-2
MEAN_MOTION_DDOT = 0

CCSDS_OMM_VERS = 2.0
CREATION_DATE  = 
ORIGINATOR     = 

OBJECT_NAME    = STARLINK-36787
OBJECT_ID      = 2026-042AB
CENTER_NAME    = EARTH
REF_FRAME      = TEME
TIME_SYSTEM    = UTC
MEAN_ELEMENT_THEORY = SGP/SGP4

EPOCH          = 2026-03-21T22:00:00.999936
MEAN_MOTION    = 15.75223936
ECCENTRICITY   = .0000761
INCLINATION    = 53.1590
RA_OF_ASC_NODE = 133.3888
ARG_OF_PERICENTER = 80.2877
MEAN_ANOMALY   = 81.5972

EPHEMERIS_TYPE = 0
CLASSIFICATION_TYPE = U
NORAD_CAT_ID   = 68094
ELEMENT_SET_NO = 999
REV_AT_EPOCH   = 400
BSTAR          = .33132499E-4
MEAN_MOTION_DOT = .4439E-4
MEAN_MOTION_DDOT = 0

CCSDS_OMM_VERS = 2.0
CREATION_DATE  = 
ORIGINATOR     = 

OBJECT_NAME    = STARLINK-36790
OBJECT_ID      = 2026-042AC
CENTER_NAME    = EARTH
REF_FRAME      = TEME
TIME_SYSTEM    = UTC
MEAN_ELEMENT_THEORY = SGP/SGP4

EPOCH          = 2026-03-21T22:37:38.009856
MEAN_MOTION    = 15.81009902
ECCENTRICITY   = .00009156
INCLINATION    = 53.1577
RA_OF_ASC_NODE = 133.1584
ARG_OF_PERICENTER = 93.2279
MEAN_ANOMALY   = 266.8849

EPHEMERIS_TYPE = 0
CLASSIFICATION_TYPE = U
NORAD_CAT_ID   = 68095
ELEMENT_SET_NO = 999
REV_AT_EPOCH   = 401
BSTAR          = .20434141E-2
MEAN_MOTION_DOT = .425832E-2
MEAN_MOTION_DDOT = 0

CCSDS_OMM_VERS = 2.0
CREATION_DATE  = 
ORIGINATOR     = 

OBJECT_NAME    = STARLINK-36328
OBJECT_ID      = 2026-042AD
CENTER_NAME    = EARTH
REF_FRAME      = TEME
TIME_SYSTEM    = UTC
MEAN_ELEMENT_THEORY = SGP/SGP4

EPOCH          = 2026-03-21T22:33:18.637056
MEAN_MOTION    = 15.81011105
ECCENTRICITY   = .00007699
INCLINATION    = 53.1577
RA_OF_ASC_NODE = 133.1372
ARG_OF_PERICENTER = 52.5683
MEAN_ANOMALY   = 307.5410

EPHEMERIS_TYPE = 0
CLASSIFICATION_TYPE = U
NORAD_CAT_ID   = 68096
ELEMENT_SET_NO = 999
REV_AT_EPOCH   = 401
BSTAR          = .1994094E-2
MEAN_MOTION_DOT = .415038E-2
MEAN_MOTION_DDOT = 0

CCSDS_OMM_VERS = 2.0
CREATION_DATE  = 
ORIGINATOR     = 

OBJECT_NAME    = STARLINK-36853
OBJECT_ID      = 2026-042AE
CENTER_NAME    = EARTH
REF_FRAME      = TEME
TIME_SYSTEM    = UTC
MEAN_ELEMENT_THEORY = SGP/SGP4

EPOCH          = 2026-03-21T22:35:28.323456
MEAN_MOTION    = 15.81015221
ECCENTRICITY   = .00009743
INCLINATION    = 53.1578
RA_OF_ASC_NODE = 133.1480
ARG_OF_PERICENTER = 82.2547
MEAN_ANOMALY   = 277.8586

EPHEMERIS_TYPE = 0
CLASSIFICATION_TYPE = U
NORAD_CAT_ID   = 68097
ELEMENT_SET_NO = 999
REV_AT_EPOCH   = 401
BSTAR          = .20639691E-2
MEAN_MOTION_DOT = .43046E-2
MEAN_MOTION_DDOT = 0

CCSDS_OMM_VERS = 2.0
CREATION_DATE  = 
ORIGINATOR     = 

OBJECT_NAME    = GLOBAL-34
OBJECT_ID      = 2026-043A
CENTER_NAME    = EARTH
REF_FRAME      = TEME
TIME_SYSTEM    = UTC
MEAN_ELEMENT_THEORY = SGP/SGP4

EPOCH          = 2026-03-21T22:19:22.675584
MEAN_MOTION    = 15.31676546
ECCENTRICITY   = .00050859
INCLINATION    = 42.0224
RA_OF_ASC_NODE = 4.8395
ARG_OF_PERICENTER = 4.9778
MEAN_ANOMALY   = 355.1109

EPHEMERIS_TYPE = 0
CLASSIFICATION_TYPE = U
NORAD_CAT_ID   = 68098
ELEMENT_SET_NO = 999
REV_AT_EPOCH   = 244
BSTAR          = .52124658E-3
MEAN_MOTION_DOT = .16076E-3
MEAN_MOTION_DDOT = 0

CCSDS_OMM_VERS = 2.0
CREATION_DATE  = 
ORIGINATOR     = 

OBJECT_NAME    = STARLINK-37022
OBJECT_ID      = 2026-044A
CENTER_NAME    = EARTH
REF_FRAME      = TEME
TIME_SYSTEM    = UTC
MEAN_ELEMENT_THEORY = SGP/SGP4

EPOCH          = 2026-03-21T22:00:00.999936
MEAN_MOTION    = 15.75197815
ECCENTRICITY   = .00017613
INCLINATION    = 97.2834
RA_OF_ASC_NODE = 41.6544
ARG_OF_PERICENTER = 89.8109
MEAN_ANOMALY   = 298.3841

EPHEMERIS_TYPE = 0
CLASSIFICATION_TYPE = U
NORAD_CAT_ID   = 68101
ELEMENT_SET_NO = 999
REV_AT_EPOCH   = 336
BSTAR          = -.18928585E-3
MEAN_MOTION_DOT = -.2828E-3
MEAN_MOTION_DDOT = 0

CCSDS_OMM_VERS = 2.0
CREATION_DATE  = 
ORIGINATOR     = 

OBJECT_NAME    = STARLINK-37046
OBJECT_ID      = 2026-044B
CENTER_NAME    = EARTH
REF_FRAME      = TEME
TIME_SYSTEM    = UTC
MEAN_ELEMENT_THEORY = SGP/SGP4

EPOCH          = 2026-03-21T22:00:00.999936
MEAN_MOTION    = 15.75193794
ECCENTRICITY   = .00015201
INCLINATION    = 97.2836
RA_OF_ASC_NODE = 41.6574
ARG_OF_PERICENTER = 105.4013
MEAN_ANOMALY   = 288.7913

EPHEMERIS_TYPE = 0
CLASSIFICATION_TYPE = U
NORAD_CAT_ID   = 68102
ELEMENT_SET_NO = 999
REV_AT_EPOCH   = 336
BSTAR          = -.98607235E-4
MEAN_MOTION_DOT = -.14815E-3
MEAN_MOTION_DDOT = 0

CCSDS_OMM_VERS = 2.0
CREATION_DATE  = 
ORIGINATOR     = 

OBJECT_NAME    = STARLINK-37018
OBJECT_ID      = 2026-044C
CENTER_NAME    = EARTH
REF_FRAME      = TEME
TIME_SYSTEM    = UTC
MEAN_ELEMENT_THEORY = SGP/SGP4

EPOCH          = 2026-03-21T22:00:00.999936
MEAN_MOTION    = 15.75194505
ECCENTRICITY   = .00015361
INCLINATION    = 97.2836
RA_OF_ASC_NODE = 41.6607
ARG_OF_PERICENTER = 104.4430
MEAN_ANOMALY   = 297.7520

EPHEMERIS_TYPE = 0
CLASSIFICATION_TYPE = U
NORAD_CAT_ID   = 68103
ELEMENT_SET_NO = 999
REV_AT_EPOCH   = 331
BSTAR          = -.17511123E-3
MEAN_MOTION_DOT = -.26174E-3
MEAN_MOTION_DDOT = 0

